OBJECT_NAME,OBJECT_ID,EPOCH,MEAN_MOTION,ECCENTRICITY,INCLINATION,RA_OF_ASC_NODE,ARG_OF_PERICENTER,MEAN_ANOMALY,EPHEMERIS_TYPE,CLASSIFICATION_TYPE,NORAD_CAT_ID,ELEMENT_SET_NO,REV_AT_EPOCH,BSTAR,MEAN_MOTION_DOT,MEAN_MOTION_DDOT
GEOSCAN 3 (RS92S3),2025-155T,2026-07-10T14:00:26.610048,15.36203169,.00086461,97.4541,161.7474,99.2238,260.9984,0,U,64893,999,8444,.37694403E-3,.13239E-3,0
INNOSAT 3 (RS92S0),2025-155U,2026-07-10T13:39:06.865344,15.45574664,.000834,97.4488,163.6545,101.2928,258.9259,0,U,64894,999,8457,.59194638E-3,.28468E-3,0
KNACKSAT-2,1998-067XZ,2026-07-08T06:51:35.208288,15.61884949,.00082087,51.6260,188.2015,303.7179,56.3032,0,U,67683,999,2357,.40782476E-3,.35828E-3,0
