GEOSCAN-3 (RS92S3)
1 64893U 25155T   26191.58364132  .00013239  00000-0  37694-3 0  9999
2 64893  97.4541 161.7474 0008646  99.2238 260.9984 15.36203169 84443
INNOSAT3 (RS92S0)
1 64894U 25155U   26191.56882946  .00028468  00000-0  59195-3 0  9996
2 64894  97.4488 163.6545 0008340 101.2928 258.9259 15.45574664 84572
KNACKSAT-2
1 67683U 98067XZ  26189.28582417  .00035828  00000-0  40782-3 0  9993
2 67683  51.6260 188.2015 0008209 303.7179  56.3032 15.61884949 23577
